{
  "norad_id": 58087,
  "name": "STARLINK-30557",
  "history": [
    {
      "epoch": "2026-03-28T17:10:01.953696",
      "apogee_km": 483.77358046430163,
      "perigee_km": 482.30597475157174,
      "latitude_deg": -21.329980051263878,
      "longitude_deg": 57.36883743992075,
      "semi_major_axis_km": 6861.176777607937,
      "eccentricity": 0.00010695,
      "inclination_deg": 42.9987,
      "raan_deg": 333.9998,
      "arg_perigee_deg": 271.7506,
      "mean_anomaly_deg": 88.3223,
      "mean_motion_rev_day": 15.27583112
    }
  ]
}